[{"ORDINAL":"1","COMMENT":"GENERATED VIA SPACETRACK.ORG API","ORIGINATOR":"JSPOC","NORAD_CAT_ID":"37238","OBJECT_NAME":"INTELSAT 17","OBJECT_TYPE":"PAYLOAD","CLASSIFICATION_TYPE":"U","INTLDES":"10065B","EPOCH":"2016-06-22 22:11:15","EPOCH_MICROSECONDS":"999936","MEAN_MOTION":"1.00270789","ECCENTRICITY":"0.0002355","INCLINATION":"0.0302","RA_OF_ASC_NODE":"62.8655","ARG_OF_PERICENTER":"44.096","MEAN_ANOMALY":"203.3409","EPHEMERIS_TYPE":"0","ELEMENT_SET_NO":"999","REV_AT_EPOCH":"1686","BSTAR":"0","MEAN_MOTION_DOT":"-2e-08","MEAN_MOTION_DDOT":"0","FILE":"2050785","TLE_LINE0":"0 INTELSAT 17","TLE_LINE1":"1 37238U 10065B   16174.92449074 -.00000002 +00000-0 +00000-0 0  9996","TLE_LINE2":"2 37238 000.0302 062.8655 0002355 044.0960 203.3409 01.00270789016866","OBJECT_ID":"2010-065B","OBJECT_NUMBER":"37238","SEMIMAJOR_AXIS":"42165.011","PERIOD":"1436.111","APOGEE":"35796.806","PERIGEE":"35776.946"},{"ORDINAL":"1","COMMENT":"GENERATED VIA SPACETRACK.ORG API","ORIGINATOR":"JSPOC","NORAD_CAT_ID":"37256","OBJECT_NAME":"BEIDOU IGSO 2","OBJECT_TYPE":"PAYLOAD","CLASSIFICATION_TYPE":"U","INTLDES":"10068A","EPOCH":"2016-06-22 20:59:23","EPOCH_MICROSECONDS":"508096","MEAN_MOTION":"1.00292468","ECCENTRICITY":"0.0046478","INCLINATION":"53.5793","RA_OF_ASC_NODE":"315.442","ARG_OF_PERICENTER":"204.3075","MEAN_ANOMALY":"185.4217","EPHEMERIS_TYPE":"0","ELEMENT_SET_NO":"999","REV_AT_EPOCH":"2024","BSTAR":"0.0001","MEAN_MOTION_DOT":"-2.33e-06","MEAN_MOTION_DDOT":"0","FILE":"2050390","TLE_LINE0":"0 BEIDOU IGSO 2","TLE_LINE1":"1 37256U 10068A   16174.87457764 -.00000233  00000-0  10000-3 0  9998","TLE_LINE2":"2 37256  53.5793 315.4420 0046478 204.3075 185.4217  1.00292468 20244","OBJECT_ID":"2010-068A","OBJECT_NUMBER":"37256","SEMIMAJOR_AXIS":"42158.934","PERIOD":"1435.800","APOGEE":"35976.746","PERIGEE":"35584.853"},{"ORDINAL":"1","COMMENT":"GENERATED VIA SPACETRACK.ORG API","ORIGINATOR":"JSPOC","NORAD_CAT_ID":"37258","OBJECT_NAME":"EUTE KA SAT 9A (KA SAT)","OBJECT_TYPE":"PAYLOAD","CLASSIFICATION_TYPE":"U","INTLDES":"10069A","EPOCH":"2016-06-21 05:24:59","EPOCH_MICROSECONDS":"727456","MEAN_MOTION":"1.00286926","ECCENTRICITY":"0.0005701","INCLINATION":"0.0446","RA_OF_ASC_NODE":"298.8938","ARG_OF_PERICENTER":"165.8014","MEAN_ANOMALY":"255.3733","EPHEMERIS_TYPE":"0","ELEMENT_SET_NO":"999","REV_AT_EPOCH":"2024","BSTAR":"0","MEAN_MOTION_DOT":"6.5e-07","MEAN_MOTION_DDOT":"0","FILE":"2050115","TLE_LINE0":"0 EUTE KA SAT 9A (KA SAT)","TLE_LINE1":"1 37258U 10069A   16173.22569129  .00000065  00000-0  00000+0 0  9995","TLE_LINE2":"2 37258   0.0446 298.8938 0005701 165.8014 255.3733  1.00286926 20246","OBJECT_ID":"2010-069A","OBJECT_NUMBER":"37258","SEMIMAJOR_AXIS":"42160.487","PERIOD":"1435.880","APOGEE":"35806.388","PERIGEE":"35758.317"},{"ORDINAL":"1","COMMENT":"GENERATED VIA SPACETRACK.ORG API","ORIGINATOR":"JSPOC","NORAD_CAT_ID":"37264","OBJECT_NAME":"HISPASAT 1E","OBJECT_TYPE":"PAYLOAD","CLASSIFICATION_TYPE":"U","INTLDES":"10070A","EPOCH":"2016-06-23 00:44:51","EPOCH_MICROSECONDS":"819648","MEAN_MOTION":"1.00270402","ECCENTRICITY":"0.000503","INCLINATION":"0.0379","RA_OF_ASC_NODE":"139.833","ARG_OF_PERICENTER":"326.1722","MEAN_ANOMALY":"146.8424","EPHEMERIS_TYPE":"0","ELEMENT_SET_NO":"999","REV_AT_EPOCH":"2010","BSTAR":"0","MEAN_MOTION_DOT":"-2.17e-06","MEAN_MOTION_DDOT":"0","FILE":"2050560","TLE_LINE0":"0 HISPASAT 1E","TLE_LINE1":"1 37264U 10070A   16175.03115532 -.00000217  00000-0  00000+0 0  9990","TLE_LINE2":"2 37264   0.0379 139.8330 0005030 326.1722 146.8424  1.00270402 20109","OBJECT_ID":"2010-070A","OBJECT_NUMBER":"37264","SEMIMAJOR_AXIS":"42165.119","PERIOD":"1436.116","APOGEE":"35808.193","PERIGEE":"35765.775"},{"ORDINAL":"1","COMMENT":"GENERATED VIA SPACETRACK.ORG API","ORIGINATOR":"JSPOC","NORAD_CAT_ID":"37265","OBJECT_NAME":"KOREASAT 6","OBJECT_TYPE":"PAYLOAD","CLASSIFICATION_TYPE":"U","INTLDES":"10070B","EPOCH":"2016-06-23 00:34:59","EPOCH_MICROSECONDS":"507040","MEAN_MOTION":"1.00265606","ECCENTRICITY":"0.0001497","INCLINATION":"0.0212","RA_OF_ASC_NODE":"73.6425","ARG_OF_PERICENTER":"18.5575","MEAN_ANOMALY":"304.0761","EPHEMERIS_TYPE":"0","ELEMENT_SET_NO":"999","REV_AT_EPOCH":"2012","BSTAR":"0.0001","MEAN_MOTION_DOT":"2.58e-06","MEAN_MOTION_DDOT":"0","FILE":"2050788","TLE_LINE0":"0 KOREASAT 6","TLE_LINE1":"1 37265U 10070B   16175.02429985  .00000258  00000-0  10000-3 0  9999","TLE_LINE2":"2 37265   0.0212  73.6425 0001497  18.5575 304.0761  1.00265606 20121","OBJECT_ID":"2010-070B","OBJECT_NUMBER":"37265","SEMIMAJOR_AXIS":"42166.464","PERIOD":"1436.185","APOGEE":"35794.641","PERIGEE":"35782.016"},{"ORDINAL":"1","COMMENT":"GENERATED VIA SPACETRACK.ORG API","ORIGINATOR":"JSPOC","NORAD_CAT_ID":"37344","OBJECT_NAME":"ELEKTRO-L","OBJECT_TYPE":"PAYLOAD","CLASSIFICATION_TYPE":"U","INTLDES":"11001A","EPOCH":"2016-06-22 23:08:58","EPOCH_MICROSECONDS":"62624","MEAN_MOTION":"1.00270745","ECCENTRICITY":"0.0003973","INCLINATION":"1.7195","RA_OF_ASC_NODE":"79.4046","ARG_OF_PERICENTER":"247.8753","MEAN_ANOMALY":"7.2989","EPHEMERIS_TYPE":"0","ELEMENT_SET_NO":"999","REV_AT_EPOCH":"1990","BSTAR":"0","MEAN_MOTION_DOT":"-9.6e-07","MEAN_MOTION_DDOT":"0","FILE":"2050487","TLE_LINE0":"0 ELEKTRO-L","TLE_LINE1":"1 37344U 11001A   16174.96456091 -.00000096  00000-0  00000+0 0  9998","TLE_LINE2":"2 37344   1.7195  79.4046 0003973 247.8753   7.2989  1.00270745 19904","OBJECT_ID":"2011-001A","OBJECT_NUMBER":"37344","SEMIMAJOR_AXIS":"42165.023","PERIOD":"1436.111","APOGEE":"35803.640","PERIGEE":"35770.136"},{"ORDINAL":"1","COMMENT":"GENERATED VIA SPACETRACK.ORG API","ORIGINATOR":"JSPOC","NORAD_CAT_ID":"37372","OBJECT_NAME":"COSMOS 2471 (GLONASS)","OBJECT_TYPE":"PAYLOAD","CLASSIFICATION_TYPE":"U","INTLDES":"11009A","EPOCH":"2016-06-23 03:17:41","EPOCH_MICROSECONDS":"819712","MEAN_MOTION":"2.13102738","ECCENTRICITY":"0.0007347","INCLINATION":"65.2286","RA_OF_ASC_NODE":"76.7919","ARG_OF_PERICENTER":"242.5006","MEAN_ANOMALY":"340.1855","EPHEMERIS_TYPE":"0","ELEMENT_SET_NO":"999","REV_AT_EPOCH":"4139","BSTAR":"0","MEAN_MOTION_DOT":"-1e-07","MEAN_MOTION_DDOT":"0","FILE":"2050586","TLE_LINE0":"0 COSMOS 2471 (GLONASS)","TLE_LINE1":"1 37372U 11009A   16175.13728958 -.00000010  00000-0  00000+0 0  9997","TLE_LINE2":"2 37372  65.2286  76.7919 0007347 242.5006 340.1855  2.13102738 41392","OBJECT_ID":"2011-009A","OBJECT_NUMBER":"37372","SEMIMAJOR_AXIS":"25507.965","PERIOD":"675.730","APOGEE":"19148.571","PERIGEE":"19111.089"},{"ORDINAL":"1","COMMENT":"GENERATED VIA SPACETRACK.ORG API","ORIGINATOR":"JSPOC","NORAD_CAT_ID":"37384","OBJECT_NAME":"BEIDOU IGSO 3","OBJECT_TYPE":"PAYLOAD","CLASSIFICATION_TYPE":"U","INTLDES":"11013A","EPOCH":"2016-06-22 11:26:52","EPOCH_MICROSECONDS":"675584","MEAN_MOTION":"1.0026063","ECCENTRICITY":"0.0023862","INCLINATION":"57.3823","RA_OF_ASC_NODE":"76.7145","ARG_OF_PERICENTER":"200.4742","MEAN_ANOMALY":"286.0816","EPHEMERIS_TYPE":"0","ELEMENT_SET_NO":"999","REV_AT_EPOCH":"1911","BSTAR":"0.0001","MEAN_MOTION_DOT":"-1.9e-06","MEAN_MOTION_DDOT":"0","FILE":"2050259","TLE_LINE0":"0 BEIDOU IGSO 3","TLE_LINE1":"1 37384U 11013A   16174.47699856 -.00000190  00000-0  10000-3 0  9999","TLE_LINE2":"2 37384  57.3823  76.7145 0023862 200.4742 286.0816  1.00260630 19116","OBJECT_ID":"2011-013A","OBJECT_NUMBER":"37384","SEMIMAJOR_AXIS":"42167.859","PERIOD":"1436.256","APOGEE":"35890.345","PERIGEE":"35689.103"},{"ORDINAL":"1","COMMENT":"GENERATED VIA SPACETRACK.ORG API","ORIGINATOR":"JSPOC","NORAD_CAT_ID":"37387","OBJECT_NAME":"RESOURCESAT 2","OBJECT_TYPE":"PAYLOAD","CLASSIFICATION_TYPE":"U","INTLDES":"11015A","EPOCH":"2016-06-23 06:56:27","EPOCH_MICROSECONDS":"689568","MEAN_MOTION":"14.21632287","ECCENTRICITY":"0.0001619","INCLINATION":"98.7093","RA_OF_ASC_NODE":"249.6779","ARG_OF_PERICENTER":"316.6519","MEAN_ANOMALY":"43.4527","EPHEMERIS_TYPE":"0","ELEMENT_SET_NO":"999","REV_AT_EPOCH":"26868","BSTAR":"2.7701e-05","MEAN_MOTION_DOT":"1.7e-07","MEAN_MOTION_DDOT":"0","FILE":"2050711","TLE_LINE0":"0 RESOURCESAT 2","TLE_LINE1":"1 37387U 11015A   16175.28920937  .00000017  00000-0  27701-4 0  9995","TLE_LINE2":"2 37387  98.7093 249.6779 0001619 316.6519  43.4527 14.21632287268689","OBJECT_ID":"2011-015A","OBJECT_NUMBER":"37387","SEMIMAJOR_AXIS":"7197.974","PERIOD":"101.292","APOGEE":"821.005","PERIGEE":"818.674"},{"ORDINAL":"1","COMMENT":"GENERATED VIA SPACETRACK.ORG API","ORIGINATOR":"JSPOC","NORAD_CAT_ID":"37388","OBJECT_NAME":"YOUTHSAT","OBJECT_TYPE":"PAYLOAD","CLASSIFICATION_TYPE":"U","INTLDES":"11015B","EPOCH":"2016-06-23 10:26:06","EPOCH_MICROSECONDS":"97056","MEAN_MOTION":"14.24123085","ECCENTRICITY":"0.0013946","INCLINATION":"98.6015","RA_OF_ASC_NODE":"250.8818","ARG_OF_PERICENTER":"210.5295","MEAN_ANOMALY":"149.5072","EPHEMERIS_TYPE":"0","ELEMENT_SET_NO":"999","REV_AT_EPOCH":"26911","BSTAR":"2.8989e-05","MEAN_MOTION_DOT":"2.4e-07","MEAN_MOTION_DDOT":"0","FILE":"2050708","TLE_LINE0":"0 YOUTHSAT","TLE_LINE1":"1 37388U 11015B   16175.43479279  .00000024  00000-0  28989-4 0  9998","TLE_LINE2":"2 37388  98.6015 250.8818 0013946 210.5295 149.5072 14.24123085269116","OBJECT_ID":"2011-015B","OBJECT_NUMBER":"37388","SEMIMAJOR_AXIS":"7189.579","PERIOD":"101.114","APOGEE":"821.471","PERIGEE":"801.417"}]